satname,norad_id,inclination_deg,eccentricity,mean_motion_rev_per_day,perigee_km,apogee_km,l1,l2
STARLINK-1008,44714,53.151,0.0003008,15.52687848,406.8405736832892,410.92364437928245,1 44714U 19074B   26187.70266924  .00061836  00000+0  98527-3 0  9998,2 44714  53.1510 335.1193 0003008 278.8592  81.2078 15.52687848367246
STARLINK-1012,44718,53.1554,0.0003492,15.53002778,405.59482162983295,410.3342349371869,1 44718U 19074F   26187.82329545  .00041749  00000+0  66175-3 0  9999,2 44718  53.1554 334.7703 0003492 284.0329  76.0293 15.53002778367250
STARLINK-1017,44723,53.0473,0.0001898,15.33743521,463.35636812721987,465.9538920197965,1 44723U 19074L   26187.69976801  .00038310  00000+0  11630-2 0  9998,2 44723  53.0473 338.2053 0001898 111.5413 248.5791 15.33743521367174
STARLINK-1020,44725,53.157,0.0003189,15.58828802,388.8868693972645,393.2042540351267,1 44725U 19074N   26187.74364479  .00074406  00000+0  94269-3 0  9994,2 44725  53.1570 358.0672 0003189 236.4331 123.6377 15.58828802366909
STARLINK-1036,44741,53.0433,0.0001999,15.76416958,339.2590073989704,341.9451592844898,1 44741U 19074AE  26187.64118032  .00069276  00000+0  42961-3 0  9994,2 44741  53.0433 323.8871 0001999 354.8598   5.2401 15.76416958367361
STARLINK-1039,44744,53.0588,0.0002753,15.30695508,471.849650344765,475.62229160258266,1 44744U 19074AH  26187.71940227  .00026136  00000+0  87785-3 0  9995,2 44744  53.0588  24.1393 0002753 145.5473 214.5705 15.30695508366531
STARLINK-1042,44747,53.0405,7.73e-05,15.55571863,399.96681555804116,401.01479141646087,1 44747U 19074AL  26187.40709484  .00019771  00000+0  28988-3 0  9999,2 44747  53.0405 242.6754 0000773  72.0400 288.0694 15.55571863368511
STARLINK-1043,44748,53.0484,0.0001139,15.66580406,367.92889193725387,369.4658208036344,1 44748U 19074AM  26187.83335647  .00044485  00000+0  42034-3 0  9991,2 44748  53.0484 335.0935 0001139   7.0985 321.3611 15.66580406  5940
STARLINK-1046,44751,53.0467,0.0004157,15.59104116,387.43503077072637,393.06226659904314,1 44751U 19074AQ  26187.74708193  .00078420  00000+0  98221-3 0  9990,2 44751  53.0467 358.5879 0004157 184.9090 175.1882 15.59104116366898
STARLINK-1047,44752,53.0698,0.0006408,15.35057489,456.3673832589875,465.1321005073851,1 44752U 19074AR  26187.60519837 -.00001487  00000+0 -31978-4 0  9999,2 44752  53.0698 309.3940 0006408 192.7339 167.3502 15.35057489367596
STARLINK-1048,44753,53.0432,0.0002386,15.70522877,355.79451145498115,359.00871048013505,1 44753U 19074AS  26187.70554044  .00050805  00000+0  40759-3 0  9992,2 44753  53.0432 306.4061 0002386 126.1357 233.9881 15.70522877367617
STARLINK-1063,44768,53.1549,0.0001602,15.52762935,407.5760618119957,409.7505526304294,1 44768U 19074BH  26187.84439993  .00052614  00000+0  83823-3 0  9997,2 44768  53.1549  15.4761 0001602 232.7347 127.3518 15.52762935366703
STARLINK-1067,44771,53.0419,0.0004631,15.82651844,319.8414754471587,326.0480173606775,1 44771U 19074BL  26187.83335647  .00118289  00000+0  54719-3 0  9994,2 44771  53.0419 335.3100 0004631 309.0006 123.5786 15.82651844  5982
STARLINK-1068,44772,53.0395,0.00043,15.80391687,326.4479339650343,332.216357430334,1 44772U 19074BM  26187.86192148  .00071485  00000+0  37059-3 0  9999,2 44772  53.0395 309.2390 0004300 320.2578  39.8128 15.80391687367589
STARLINK-1114,44927,53.0386,0.0001604,15.72810835,349.78859683344035,351.947261614735,1 44927U 20001P   26187.84770417  .00051617  00000+0  37604-3 0  9993,2 44927  53.0386 108.2058 0001604 156.8754 203.2336 15.72810835358706
STARLINK-1123,44930,53.1398,0.0007365,15.62688272,374.9181592813311,384.87274108044676,1 44930U 20001S   26187.85501414  .00064152  00000+0  70199-3 0  9991,2 44930  53.1398 137.3250 0007365  52.8557 307.3129 15.62688272358317
STARLINK-1094,44941,53.1489,0.0006815,15.58160409,388.3667250273793,397.5957591913739,1 44941U 20001AD  26187.82959748  .00053410  00000+0  69707-3 0  9995,2 44941  53.1489 113.3971 0006815  76.9907 283.1866 15.58160409358657
STARLINK-1122,44949,53.1518,0.0006414,15.58072964,388.8914293322405,397.5777448041317,1 44949U 20001AM  26187.19540623  .00036064  00000+0  47545-3 0  9993,2 44949  53.1518 117.0412 0006414  68.3313 291.8382 15.58072964358545
STARLINK-1080,44961,53.0435,0.0002187,15.7081146,355.10375359291265,358.0495173370646,1 44961U 20001AZ  26187.85312258  .00044899  00000+0  35671-3 0  9993,2 44961  53.0435  68.5400 0002187 137.2184 222.9004 15.70811460359260
STARLINK-1090,44968,53.1462,0.000545,15.54199195,400.7849430701972,408.177997202647,1 44968U 20001BG  26187.83357213  .00051223  00000+0  77470-3 0  9990,2 44968  53.1462 102.4903 0005450  81.7283 278.4346 15.54199195358803
STARLINK-1132,45044,53.1489,0.000239,15.59441422,387.65520480133273,390.8900265976381,1 45044U 20006A   26187.00321598  .00039551  00000+0  49474-3 0  9990,2 45044  53.1489  46.4277 0002390 144.3107 215.8067 15.59441422355293
STARLINK-1131,45047,53.1529,0.0004353,15.5622867,395.63348100311214,401.5332937723715,1 45047U 20006D   26187.85109796  .00050966  00000+0  71574-3 0  9999,2 45047  53.1529  75.8952 0004353 106.9470 253.2020 15.56228670354957
STARLINK-1134,45048,53.0221,0.0006205,15.62797635,375.3870028119509,383.7733298153462,1 45048U 20006E   26187.70775058  .00034507  00000+0  38015-3 0  9990,2 45048  53.0221  24.6042 0006205 181.9411 178.1579 15.62797635355633
STARLINK-1156,45054,53.1553,0.0004518,15.37638597,450.00799604252734,456.1806966871018,1 45054U 20006L   26187.88056073  .00024635  00000+0  66520-3 0  9998,2 45054  53.1553  85.1053 0004518  91.4463 268.7059 15.37638597354822
STARLINK-1166,45060,53.0428,6.2e-05,15.68411472,363.0272259070116,363.8631821003073,1 45060U 20006S   26187.86967282  .00040858  00000+0  35903-3 0  9992,2 45060  53.0428  56.4957 0000620 122.5532 237.5544 15.68411472355207
STARLINK-1169,45061,53.1531,0.0005299,15.41167625,439.04773435850257,446.27641721902455,1 45061U 20006T   26187.84939390  .00040379  00000+0  96337-3 0  9996,2 45061  53.1531  83.1119 0005299  72.6006 287.5579 15.41167625354851
STARLINK-1171,45062,53.0379,4.76e-05,15.79091008,332.69543258475096,333.334334244053,1 45062U 20006U   26187.69260297  .00081894  00000+0  44951-3 0  9995,2 45062  53.0379  20.3246 0000476  42.3269 317.7788 15.79091008355695
STARLINK-1133,45064,53.1561,0.0004552,15.37509774,450.36616877459073,456.5856691760264,1 45064U 20006W   26187.85254006  .00032350  00000+0  87301-3 0  9995,2 45064  53.1561  62.0233 0004552  99.1384 261.0135 15.37509774355153
STARLINK-1167,45071,53.1551,0.0002782,15.40144679,443.7835515328961,447.58032438997725,1 45071U 20006AD  26187.87182844  .00017057  00000+0  42803-3 0  9990,2 45071  53.1551  60.4684 0002782  63.6785 296.4506 15.40144679355175
STARLINK-1168,45072,53.1563,0.0004146,15.37933535,449.38907675814244,455.0528095646123,1 45072U 20006AE  26187.04682977  .00035467  00000+0  94277-3 0  9999,2 45072  53.1563  65.9462 0004146  94.6584 265.4894 15.37933535355023
STARLINK-1172,45074,53.154,0.0003107,15.4124612,440.31133660179785,444.54963723817036,1 45074U 20006AG  26187.87519444  .00038904  00000+0  92655-3 0  9997,2 45074  53.1540  59.5677 0003107  73.8141 286.3206 15.41246120355189
STARLINK-1153,45080,53.1565,0.0004608,15.40131692,442.5758652257009,448.86473211215434,1 45080U 20006AN  26187.85369734  .00016764  00000+0  42098-3 0  9993,2 45080  53.1565  60.4586 0004608  54.4834 305.6601 15.40131692355173
STARLINK-1151,45081,53.0449,0.0007825,15.98370252,273.7308721575364,284.1491977172136,1 45081U 20006AP  26187.83335647  .00293401  46431-4  61699-3 0  9994,2 45081  53.0449   5.0214 0007825 292.9481 141.0594 15.98370252  5656
STARLINK-1185,45087,53.1576,0.0003561,15.49257698,416.4759055344657,421.3167526714533,1 45087U 20006AV  26186.99137186  .00064894  00000+0  11671-2 0  9997,2 45087  53.1576  42.8809 0003561 119.0385 241.0981 15.49257698355347
STARLINK-1183,45088,53.158,0.0003835,15.37376704,451.2500523823537,456.49020184885194,1 45088U 20006AW  26187.87864779  .00036730  00000+0  99356-3 0  9996,2 45088  53.1580  46.7347 0003835 118.0725 242.0667 15.37376704355365
STARLINK-1152,45096,53.0332,0.0002769,15.52590845,407.2853958071837,411.04420354384365,1 45096U 20006BE  26187.71865360  .00057556  00000+0  92121-3 0  9997,2 45096  53.0332 359.0367 0002769 230.8352 129.2411 15.52590845355997
STARLINK-1184,45098,53.0519,0.0004978,15.15574898,515.8002594638419,522.6672818030838,1 45098U 20006BG  26187.10900035  .00017684  00000+0  93445-3 0  9999,2 45098  53.0519  68.3669 0004978 118.7972 241.3521 15.15574898354960
STARLINK-1193,45100,53.0459,0.0003505,15.71123809,353.32380018122694,358.0442087053416,1 45100U 20006BJ  26187.68358772  .00049879  00000+0  39033-3 0  9995,2 45100  53.0459   7.1345 0003505  52.5365 307.5970 15.71123809355873
STARLINK-1143,45179,53.0286,0.0002536,16.04877098,259.2504607927476,262.6177976694926,1 45179U 20012B   26187.85385632  .00390169  80822-4  56086-3 0  9995,2 45179  53.0286  91.6476 0002536 149.6141 210.5038 16.04877098354761
STARLINK-1202,45183,53.1536,0.0004561,15.37118285,451.51940540194573,457.7522607802912,1 45183U 20012F   26187.37188103  .00032329  00000+0  88353-3 0  9999,2 45183  53.1536 205.8970 0004561   3.0205 357.0826 15.37118285353152
STARLINK-1216,45185,53.1538,0.0004648,15.37514422,450.28682342772663,456.6374779982307,1 45185U 20012H   26187.40933876  .00020949  00000+0  56977-3 0  9992,2 45185  53.1538 205.5078 0004648   2.9318 357.1713 15.37514422353105
STARLINK-1225,45187,53.1544,0.0004496,15.37538513,450.31933479436884,456.46224458285724,1 45187U 20012K   26187.34270163  .00048821  00000+0  13081-2 0  9997,2 45187  53.1544 206.2810 0004496   4.1726 355.9315 15.37538513353138
STARLINK-1230,45189,53.1529,0.0004644,15.37402865,450.61987485218015,456.9653710859948,1 45189U 20012M   26187.74683639  .00028510  00000+0  77365-3 0  9998,2 45189  53.1529 204.4837 0004644   5.6916 354.4140 15.37402865350423
